{
  "type": "FeatureCollection",
  "features": [
    {
      "type": "Feature",
      "properties": {
        "norad_id": 41866,
        "name": "GOES 16",
        "group": "weather",
        "lat": -0.021714682176982945,
        "lon": 61.112725276076766,
        "alt_km": 35799.72442268319,
        "timestamp": "2025-12-10T05:46:13.440367+00:00",
        "meta_object_name": "GOES 16",
        "meta_object_id": "2016-071A",
        "meta_epoch": "2025-12-09T17:18:03.588768",
        "meta_mean_motion": 1.00271119,
        "meta_eccentricity": 0.0003383,
        "meta_inclination": 0.0636,
        "meta_ra_of_asc_node": 105.8807,
        "meta_arg_of_pericenter": 155.353,
        "meta_mean_anomaly": 332.3167,
        "meta_ephemeris_type": 0,
        "meta_classification_type": "U",
        "meta_norad_cat_id": 41866,
        "meta_element_set_no": 999,
        "meta_rev_at_epoch": 3320,
        "meta_bstar": 0,
        "meta_mean_motion_dot": -8.8e-07,
        "meta_mean_motion_ddot": 0,
        "tle_line1": "1 41866U 16071A   25343.72087487 -.00000088  00000+0  00000+0 0  9995",
        "tle_line2": "2 41866   0.0636 105.8807 0003383 155.3530 332.3167  1.00271119 33205"
      },
      "geometry": {
        "type": "Point",
        "coordinates": [
          61.112725276076766,
          -0.021714682176982945
        ]
      }
    },
    {
      "type": "Feature",
      "properties": {
        "norad_id": 41882,
        "name": "FENGYUN 4A",
        "group": "weather",
        "lat": -0.8604786936502686,
        "lon": -70.33233023476672,
        "alt_km": 35776.22994939771,
        "timestamp": "2025-12-10T05:46:13.440378+00:00",
        "meta_object_name": "FENGYUN 4A",
        "meta_object_id": "2016-077A",
        "meta_epoch": "2025-12-08T17:16:38.775936",
        "meta_mean_motion": 1.00275455,
        "meta_eccentricity": 0.00049335,
        "meta_inclination": 1.839,
        "meta_ra_of_asc_node": 82.4323,
        "meta_arg_of_pericenter": 143.079,
        "meta_mean_anomaly": 235.2066,
        "meta_ephemeris_type": 0,
        "meta_classification_type": "U",
        "meta_norad_cat_id": 41882,
        "meta_element_set_no": 999,
        "meta_rev_at_epoch": 3302,
        "meta_bstar": 0,
        "meta_mean_motion_dot": -3.55e-06,
        "meta_mean_motion_ddot": 0,
        "tle_line1": "1 41882U 16077A   25342.71989324 -.00000355  00000+0  00000+0 0  9995",
        "tle_line2": "2 41882   1.8390  82.4323 0004933 143.0790 235.2066  1.00275455 33022"
      },
      "geometry": {
        "type": "Point",
        "coordinates": [
          -70.33233023476672,
          -0.8604786936502686
        ]
      }
    },
    {
      "type": "Feature",
      "properties": {
        "norad_id": 41884,
        "name": "CYGFM05",
        "group": "weather",
        "lat": 34.81723542547517,
        "lon": 158.94131825166346,
        "alt_km": 414.9197682052636,
        "timestamp": "2025-12-10T05:46:13.440390+00:00",
        "meta_object_name": "CYGFM05",
        "meta_object_id": "2016-078A",
        "meta_epoch": "2025-12-09T13:52:51.612096",
        "meta_mean_motion": 15.47454273,
        "meta_eccentricity": 0.0009703,
        "meta_inclination": 34.9598,
        "meta_ra_of_asc_node": 67.7793,
        "meta_arg_of_pericenter": 153.8808,
        "meta_mean_anomaly": 206.2405,
        "meta_ephemeris_type": 0,
        "meta_classification_type": "U",
        "meta_norad_cat_id": 41884,
        "meta_element_set_no": 999,
        "meta_rev_at_epoch": 49927,
        "meta_bstar": 0.00049142,
        "meta_mean_motion_dot": 0.0002606,
        "meta_mean_motion_ddot": 0,
        "tle_line1": "1 41884U 16078A   25343.57837514  .00026060  00000+0  49142-3 0  9990",
        "tle_line2": "2 41884  34.9598  67.7793 0009703 153.8808 206.2405 15.47454273499278"
      },
      "geometry": {
        "type": "Point",
        "coordinates": [
          158.94131825166346,
          34.81723542547517
        ]
      }
    },
    {
      "type": "Feature",
      "properties": {
        "norad_id": 41885,
        "name": "CYGFM04",
        "group": "weather",
        "lat": -26.219129437223252,
        "lon": -6.567171827571713,
        "alt_km": 420.8626646864832,
        "timestamp": "2025-12-10T05:46:13.440400+00:00",
        "meta_object_name": "CYGFM04",
        "meta_object_id": "2016-078B",
        "meta_epoch": "2025-12-09T14:31:54.391296",
        "meta_mean_motion": 15.50154602,
        "meta_eccentricity": 0.0009067,
        "meta_inclination": 34.9356,
        "meta_ra_of_asc_node": 42.4688,
        "meta_arg_of_pericenter": 182.7404,
        "meta_mean_anomaly": 177.327,
        "meta_ephemeris_type": 0,
        "meta_classification_type": "U",
        "meta_norad_cat_id": 41885,
        "meta_element_set_no": 999,
        "meta_rev_at_epoch": 49945,
        "meta_bstar": 0.00051178,
        "meta_mean_motion_dot": 0.00029862,
        "meta_mean_motion_ddot": 0,
        "tle_line1": "1 41885U 16078B   25343.60549064  .00029862  00000+0  51178-3 0  9990",
        "tle_line2": "2 41885  34.9356  42.4688 0009067 182.7404 177.3270 15.50154602499455"
      },
      "geometry": {
        "type": "Point",
        "coordinates": [
          -6.567171827571713,
          -26.219129437223252
        ]
      }
    },
    {
      "type": "Feature",
      "properties": {
        "norad_id": 41886,
        "name": "CYGFM02",
        "group": "weather",
        "lat": -25.961552414436028,
        "lon": -7.548737948979275,
        "alt_km": 417.5647147486652,
        "timestamp": "2025-12-10T05:46:13.440411+00:00",
        "meta_object_name": "CYGFM02",
        "meta_object_id": "2016-078C",
        "meta_epoch": "2025-12-09T12:59:53.719872",
        "meta_mean_motion": 15.51515915,
        "meta_eccentricity": 0.001075,
        "meta_inclination": 34.9444,
        "meta_ra_of_asc_node": 41.2551,
        "meta_arg_of_pericenter": 181.5445,
        "meta_mean_anomaly": 178.5246,
        "meta_ephemeris_type": 0,
        "meta_classification_type": "U",
        "meta_norad_cat_id": 41886,
        "meta_element_set_no": 999,
        "meta_rev_at_epoch": 49957,
        "meta_bstar": 0.00051269,
        "meta_mean_motion_dot": 0.00031436,
        "meta_mean_motion_ddot": 0,
        "tle_line1": "1 41886U 16078C   25343.54159398  .00031436  00000+0  51269-3 0  9992",
        "tle_line2": "2 41886  34.9444  41.2551 0010750 181.5445 178.5246 15.51515915499571"
      },
      "geometry": {
        "type": "Point",
        "coordinates": [
          -7.548737948979275,
          -25.961552414436028
        ]
      }
    },
    {
      "type": "Feature",
      "properties": {
        "norad_id": 41887,
        "name": "CYGFM01",
        "group": "weather",
        "lat": 24.49328196491255,
        "lon": -154.90676197938018,
        "alt_km": 411.6548525410026,
        "timestamp": "2025-12-10T05:46:13.440421+00:00",
        "meta_object_name": "CYGFM01",
        "meta_object_id": "2016-078D",
        "meta_epoch": "2025-12-09T15:16:01.554240",
        "meta_mean_motion": 15.48030549,
        "meta_eccentricity": 0.0009257,
        "meta_inclination": 34.9428,
        "meta_ra_of_asc_node": 69.7736,
        "meta_arg_of_pericenter": 146.0748,
        "meta_mean_anomaly": 214.0567,
        "meta_ephemeris_type": 0,
        "meta_classification_type": "U",
        "meta_norad_cat_id": 41887,
        "meta_element_set_no": 999,
        "meta_rev_at_epoch": 49922,
        "meta_bstar": 0.0005095,
        "meta_mean_motion_dot": 0.00027573,
        "meta_mean_motion_ddot": 0,
        "tle_line1": "1 41887U 16078D   25343.63612910  .00027573  00000+0  50950-3 0  9990",
        "tle_line2": "2 41887  34.9428  69.7736 0009257 146.0748 214.0567 15.48030549499221"
      },
      "geometry": {
        "type": "Point",
        "coordinates": [
          -154.90676197938018,
          24.49328196491255
        ]
      }
    },
    {
      "type": "Feature",
      "properties": {
        "norad_id": 41888,
        "name": "CYGFM08",
        "group": "weather",
        "lat": 5.025588505795844,
        "lon": -138.39061791433085,
        "alt_km": 409.56189897359945,
        "timestamp": "2025-12-10T05:46:13.440432+00:00",
        "meta_object_name": "CYGFM08",
        "meta_object_id": "2016-078E",
        "meta_epoch": "2025-12-09T15:07:00.594336",
        "meta_mean_motion": 15.49227132,
        "meta_eccentricity": 0.0011141,
        "meta_inclination": 34.9464,
        "meta_ra_of_asc_node": 52.8424,
        "meta_arg_of_pericenter": 170.6164,
        "meta_mean_anomaly": 189.4767,
        "meta_ephemeris_type": 0,
        "meta_classification_type": "U",
        "meta_norad_cat_id": 41888,
        "meta_element_set_no": 999,
        "meta_rev_at_epoch": 49945,
        "meta_bstar": 0.00051607,
        "meta_mean_motion_dot": 0.0002916,
        "meta_mean_motion_ddot": 0,
        "tle_line1": "1 41888U 16078E   25343.62986799  .00029160  00000+0  51607-3 0  9993",
        "tle_line2": "2 41888  34.9464  52.8424 0011141 170.6164 189.4767 15.49227132499458"
      },
      "geometry": {
        "type": "Point",
        "coordinates": [
          -138.39061791433085,
          5.025588505795844
        ]
      }
    }
  ]
}